FLOCK 4BE-18            
1 60480U 24149N   26063.14776441  .00029156  00000+0  77994-3 0  9990
2 60480  97.3786 146.0469 0003069 267.2600  92.8293 15.38005716 86149
FLOCK 4BE-7             
1 60481U 24149P   26063.15504295  .00023302  00000+0  66481-3 0  9994
2 60481  97.3818 145.6559 0002033 257.1049 102.9968 15.36048218 86106
FLOCK 4BE-16            
1 60483U 24149R   26063.20512020  .00194645  00000+0  17917-2 0  9995
2 60483  97.3732 148.5262 0006654 243.8368 116.2208 15.67021833 86300
FLOCK 4BE-26            
1 60484U 24149S   26063.18132475  .00129968  00000+0  28980-2 0  9993
2 60484  97.3773 145.9586 0005920 255.9582 104.1008 15.43066089 86145
TOMORROW-S2             
1 60485U 24149T   26063.12962342  .00011589  00000+0  39457-3 0  9993
2 60485  97.3874 144.4431 0001420 274.3260  85.7819 15.30566048 86005
FLOCK 4BE-36            
1 60486U 24149U   26063.17996232  .00032205  00000+0  83725-3 0  9999
2 60486  97.3795 146.6172 0002805 280.0207  80.0722 15.38866948 86187
FLOCK 4BE-25            
1 60487U 24149V   26063.16796000  .00023594  00000+0  67879-3 0  9993
2 60487  97.3853 145.8175 0001237 244.2774 115.8342 15.35785137 86100
FLOCK 4BE-31            
1 60488U 24149W   26063.15173749  .00033399  00000+0  84647-3 0  9998
2 60488  97.3851 147.2011 0001711 273.5959  86.5091 15.39642385 86196
FLOCK 4BE-20            
1 60489U 24149X   26063.14357479  .00020670  00000+0  60887-3 0  9990
2 60489  97.3760 144.9353 0002438 271.9572  88.1392 15.35066471 86081
FLOCK 4BE-23            
1 60490U 24149Y   26063.17418013  .00022202  00000+0  66114-3 0  9999
2 60490  97.3839 145.2847 0002075 284.2604  75.8409 15.34709658 86073
FLOCK 4BE-15            
1 60491U 24149Z   26063.18656731  .00110485  00000+0  27919-2 0  9992
2 60491  97.3776 146.3134 0002890 327.6143  32.4924 15.39370368 86179
FLOCK 4BE-17            
1 60492U 24149AA  26063.15914494  .00024017  00000+0  67724-3 0  9997
2 60492  97.3834 145.9357 0002063 260.1043  99.9968 15.36408678 86112
NUSAT-50 (NANCY ROMAN)  
1 60493U 24149AB  26062.84927846  .00012024  00000+0  42172-3 0  9993
2 60493  97.3825 144.8571 0001958 311.7383  48.3690 15.29585917 86025
FLOCK 4BE-22            
1 60494U 24149AC  26063.16311391  .00029846  00000+0  81240-3 0  9991
2 60494  97.3786 145.9856 0002723 287.5241  72.5705 15.37463328 86143
FLOCK 4BE-34            
1 60495U 24149AD  26063.18614017  .00026491  00000+0  71499-3 0  9993
2 60495  97.3833 146.7524 0002307 290.9477  69.1521 15.37750655 86178
TYCHE                   
1 60496U 24149AE  26063.14327287  .00007927  00000+0  31043-3 0  9994
2 60496  97.3821 142.3510 0001931 241.4073 118.6971 15.26066278 85883
FLOCK 4BE-32            
1 60497U 24149AF  26063.14085620  .00029581  00000+0  78652-3 0  9994
2 60497  97.3774 146.2134 0002644 289.6012  70.4948 15.38191212 86166
